[
    {
        "Altitude(m)": 717841.4796661482,
        "Argument of Periapsis(deg)": 0.011390121186627068,
        "Eccentricity": 0.0,
        "Inclination(deg)": 45.0,
        "Latitude(deg)": -45.05591232912457,
        "Longitude(deg)": -11.03278202385256,
        "Mean Anomaly(deg)": -86.6485833525192,
        "RAAN(deg)": 174.98924805854182,
        "Satellite Name": "Constellation 1 786",
        "Satellite Number": 786,
        "Semi-Major Axis(m)": 7083131.272910544,
        "Time(s)": 190
    },
    {
        "Altitude(m)": 717840.0003156152,
        "Argument of Periapsis(deg)": 0.011450069192872472,
        "Eccentricity": 0.0,
        "Inclination(deg)": 45.0,
        "Latitude(deg)": -45.05233608444533,
        "Longitude(deg)": -10.95155106538742,
        "Mean Anomaly(deg)": -86.58788221226928,
        "RAAN(deg)": 174.9891914693762,
        "Satellite Name": "Constellation 1 786",
        "Satellite Number": 786,
        "Semi-Major Axis(m)": 7083131.272910544,
        "Time(s)": 191
    },
    {
        "Altitude(m)": 717838.4947132799,
        "Argument of Periapsis(deg)": 0.01151001719911788,
        "Eccentricity": 0.0,
        "Inclination(deg)": 45.0,
        "Latitude(deg)": -45.048696102588586,
        "Longitude(deg)": -10.870330814559786,
        "Mean Anomaly(deg)": -86.52718107201933,
        "RAAN(deg)": 174.98913488021066,
        "Satellite Name": "Constellation 1 786",
        "Satellite Number": 786,
        "Semi-Major Axis(m)": 7083131.272910544,
        "Time(s)": 192
    },
    {
        "Altitude(m)": 717836.962864683,
        "Argument of Periapsis(deg)": 0.011569965205363285,
        "Eccentricity": 0.0,
        "Inclination(deg)": 45.0,
        "Latitude(deg)": -45.04499239953563,
        "Longitude(deg)": -10.789121625824793,
        "Mean Anomaly(deg)": -86.46647993176948,
        "RAAN(deg)": 174.9890782910451,
        "Satellite Name": "Constellation 1 786",
        "Satellite Number": 786,
        "Semi-Major Axis(m)": 7083131.272910544,
        "Time(s)": 193
    },
    {
        "Altitude(m)": 717835.4047754657,
        "Argument of Periapsis(deg)": 0.01162991321160869,
        "Eccentricity": 0.0,
        "Inclination(deg)": 45.0,
        "Latitude(deg)": -45.04122499154148,
        "Longitude(deg)": -10.707923349153173,
        "Mean Anomaly(deg)": -86.40577879151957,
        "RAAN(deg)": 174.98902170187952,
        "Satellite Name": "Constellation 1 786",
        "Satellite Number": 786,
        "Semi-Major Axis(m)": 7083131.272910544,
        "Time(s)": 194
    },
    {
        "Altitude(m)": 717833.8204513595,
        "Argument of Periapsis(deg)": 0.011689861217854095,
        "Eccentricity": 0.0,
        "Inclination(deg)": 45.0,
        "Latitude(deg)": -45.03739389513621,
        "Longitude(deg)": -10.626736338611929,
        "Mean Anomaly(deg)": -86.3450776512697,
        "RAAN(deg)": 174.98896511271397,
        "Satellite Name": "Constellation 1 786",
        "Satellite Number": 786,
        "Semi-Major Axis(m)": 7083131.272910544,
        "Time(s)": 195
    },
    {
        "Altitude(m)": 717832.2098981987,
        "Argument of Periapsis(deg)": 0.0117498092240995,
        "Eccentricity": 0.0,
        "Inclination(deg)": 45.0,
        "Latitude(deg)": -45.03349912712353,
        "Longitude(deg)": -10.54556077997162,
        "Mean Anomaly(deg)": -86.28437651101977,
        "RAAN(deg)": 174.98890852354836,
        "Satellite Name": "Constellation 1 786",
        "Satellite Number": 786,
        "Semi-Major Axis(m)": 7083131.272910544,
        "Time(s)": 196
    },
    {
        "Altitude(m)": 717830.5731219086,
        "Argument of Periapsis(deg)": 0.011809757230344905,
        "Eccentricity": 0.0,
        "Inclination(deg)": 45.0,
        "Latitude(deg)": -45.029540704580675,
        "Longitude(deg)": -10.464396858801134,
        "Mean Anomaly(deg)": -86.22367537076988,
        "RAAN(deg)": 174.9888519343828,
        "Satellite Name": "Constellation 1 786",
        "Satellite Number": 786,
        "Semi-Major Axis(m)": 7083131.272910544,
        "Time(s)": 197
    },
    {
        "Altitude(m)": 717828.9101285209,
        "Argument of Periapsis(deg)": 0.011869705236590313,
        "Eccentricity": 0.0,
        "Inclination(deg)": 45.0,
        "Latitude(deg)": -45.02551864485802,
        "Longitude(deg)": -10.383244760463942,
        "Mean Anomaly(deg)": -86.16297423051998,
        "RAAN(deg)": 174.98879534521726,
        "Satellite Name": "Constellation 1 786",
        "Satellite Number": 786,
        "Semi-Major Axis(m)": 7083131.272910544,
        "Time(s)": 198
    },
    {
        "Altitude(m)": 717827.2209241503,
        "Argument of Periapsis(deg)": 0.011929653242835719,
        "Eccentricity": 0.0,
        "Inclination(deg)": 45.0,
        "Latitude(deg)": -45.021432965578754,
        "Longitude(deg)": -10.302104670115346,
        "Mean Anomaly(deg)": -86.10227309027005,
        "RAAN(deg)": 174.98873875605167,
        "Satellite Name": "Constellation 1 786",
        "Satellite Number": 786,
        "Semi-Major Axis(m)": 7083131.272910544,
        "Time(s)": 199
    }
]